{
  "norad_id": 58001,
  "name": "STARLINK-30535",
  "history": [
    {
      "epoch": "2026-03-28T22:24:36.392256Z",
      "apogee_km": 483.740612777101,
      "perigee_km": 482.33366040865167,
      "latitude_deg": -3.0984366913944316e-05,
      "longitude_deg": 155.5113461436118,
      "height_km": 482.8686977882644,
      "semi_major_axis_km": 6861.1741365928765,
      "eccentricity": 0.00010253,
      "inclination_deg": 42.9981,
      "raan_deg": 318.0101,
      "arg_perigee_deg": 265.4833,
      "mean_anomaly_deg": 94.5901,
      "mean_motion_rev_day": 15.27583994
    },
    {
      "epoch": "2026-03-28T23:58:45.804000Z",
      "apogee_km": 484.0021842982469,
      "perigee_km": 482.093402688698,
      "latitude_deg": -2.6384519758523977e-05,
      "longitude_deg": 131.53878734079515,
      "height_km": 482.8743983371022,
      "semi_major_axis_km": 6861.184793493472,
      "eccentricity": 0.0001391,
      "inclination_deg": 42.9972,
      "raan_deg": 317.6412,
      "arg_perigee_deg": 266.9832,
      "mean_anomaly_deg": 93.086,
      "mean_motion_rev_day": 15.27580435
    },
    {
      "epoch": "2026-03-30T01:05:16.872288Z",
      "apogee_km": 484.0788411646281,
      "perigee_km": 482.1387553027189,
      "latitude_deg": 7.55714158619951e-06,
      "longitude_deg": 107.96819810430712,
      "height_km": 482.9440811597848,
      "semi_major_axis_km": 6861.245798233673,
      "eccentricity": 0.00014138,
      "inclination_deg": 43.0003,
      "raan_deg": 311.7312,
      "arg_perigee_deg": 266.5399,
      "mean_anomaly_deg": 93.5291,
      "mean_motion_rev_day": 15.27560062
    },
    {
      "epoch": "2026-03-30T07:21:54.319680Z",
      "apogee_km": 484.1025942574897,
      "perigee_km": 482.0606955887606,
      "latitude_deg": -8.349428082783535e-06,
      "longitude_deg": 12.076760591860362,
      "height_km": 482.86151690733647,
      "semi_major_axis_km": 6861.218644923125,
      "eccentricity": 0.0001488,
      "inclination_deg": 43.0026,
      "raan_deg": 310.2536,
      "arg_perigee_deg": 269.8425,
      "mean_anomaly_deg": 90.2256,
      "mean_motion_rev_day": 15.2756913
    },
    {
      "epoch": "2026-03-30T21:29:18.658176Z",
      "apogee_km": 484.1177319702347,
      "perigee_km": 481.97141715008,
      "latitude_deg": -1.969058134589518e-06,
      "longitude_deg": 156.3216291244767,
      "height_km": 482.73238065290263,
      "semi_major_axis_km": 6861.181574560157,
      "eccentricity": 0.00015641,
      "inclination_deg": 43.0037,
      "raan_deg": 306.9299,
      "arg_perigee_deg": 274.7813,
      "mean_anomaly_deg": 85.286,
      "mean_motion_rev_day": 15.2758151
    }
  ]
}